OCEANSAT-2              
1 35931U 09051A   26157.83411056  .00000142  00000+0  12313-3 0  9994
2 35931  98.2323 145.7184 0014583 267.8097  92.1400 13.99663517877884
WORLDVIEW-2 (WV-2)      
1 35946U 09055A   26157.79546567  .00000128  00000+0  56829-4 0  9990
2 35946  98.4737 231.3881 0003209 246.4825 113.6025 14.37896376874155
SMOS                    
1 36036U 09059A   26157.48718443  .00000267  00000+0  99007-4 0  9994
2 36036  98.4426 344.9790 0001340  91.3547 268.7794 14.39766844871917
YAOGAN-7                
1 36110U 09069A   26157.59533284  .00000571  00000+0  86021-4 0  9998
2 36110  98.0084  43.5272 0025983  74.3293 286.0781 14.77999271888068
TANDEM-X                
1 36605U 10030A   26157.45519333  .00000875  00000+0  44865-4 0  9998
2 36605  97.4458 165.3146 0001794  98.1824 261.9614 15.19152152885011
CARTOSAT-2B             
1 36795U 10035A   26157.85081360  .00001041  00000+0  14921-3 0  9996
2 36795  97.9953 208.4660 0010350 219.3939 140.6520 14.78649575858325
YAOGAN-10               
1 36834U 10038A   26157.85377376  .00002148  00000+0  25620-3 0  9995
2 36834  97.8979 181.3407 0001700  88.1708  35.6180 14.85318431855671
COSMO-SKYMED 4          
1 37216U 10060A   26157.84457983  .00000098  00000+0  18899-4 0  9990
2 37216  97.8887 341.5941 0001420  82.4721 277.6653 14.82159918843038
RESOURCESAT-2           
1 37387U 11015A   26157.81314028  .00000086  00000+0  59406-4 0  9995
2 37387  98.7645 225.3262 0010147 289.0159  70.9918 14.21604259784702
HAIYANG-2A              
1 37781U 11043A   26157.84727690 -.00000091  00000+0 -49753-4 0  9992
2 37781  99.3395 160.7510 0006240 112.0987 248.0825 13.74549566745236
RASAT                   
1 37791U 11044D   26157.83452255  .00000317  00000+0  63528-4 0  9990
2 37791  98.0570 249.3892 0019432 222.9338 284.9910 14.68155938791665
SRMSAT                  
1 37841U 11058D   26157.27188351  .00000385  00000+0  65061-4 0  9991
2 37841  19.9704 125.5359 0011947  84.3565  18.6414 14.11573396756279
PLEIADES 1A             
1 38012U 11076F   26157.84965358  .00000274  00000+0  68706-4 0  9991
2 38012  98.1973 233.0907 0001490  97.8401  38.2720 14.58564343770481
ZIYUAN 1-02C (ZY 1-02C) 
1 38038U 11079A   26157.86273329  .00000468  00000+0  16834-3 0  9993
2 38038  98.4068 225.3867 0006192 350.8008 144.0666 14.38206586757722
ARIRANG-3 (KOMPSAT-3)   
1 38338U 12025B   26157.83651962  .00000502  00000+0  10896-3 0  9999
2 38338  98.1172 115.4755 0006204 136.1013 224.0683 14.62197227749837
EXACTVIEW-1 (ADS-1B)    
1 38709U 12039C   26157.56800824  .00000139  00000+0  79436-4 0  9991
2 38709  98.9765 274.7191 0010585 196.7561 163.3269 14.24981483721192
SPOT 6                  
1 38755U 12047A   26157.83901881  .00000296  00000+0  73560-4 0  9992
2 38755  98.2117 225.2688 0001451  94.0993 266.0373 14.58556756731545
PLEIADES 1B             
1 39019U 12068A   26157.85791664  .00000343  00000+0  83531-4 0  9999
2 39019  98.1943 233.0517 0001579  94.9019 265.2361 14.58554262719344
GOKTURK 2               
1 39030U 12073A   26157.84099481  .00000462  00000+0  74712-4 0  9998
2 39030  97.6823 355.7907 0001944  62.5404 297.6003 14.75532086722983
LANDSAT 8               
1 39084U 13008A   26157.79290067  .00000337  00000+0  84820-4 0  9995
2 39084  98.2302 228.0512 0001460  96.4355 263.7009 14.57111790696388
SARAL                   
1 39086U 13009A   26157.84562398  .00000086  00000+0  47644-4 0  9997
2 39086  98.5558 344.5441 0001295 356.8722   3.2453 14.32853400694122
GAOFEN-1                
1 39150U 13018A   26157.83013111  .00000118  00000+0  24200-4 0  9991
2 39150  97.9091 230.1081 0015956 303.0238  56.9438 14.76524852706715
VNREDSAT 1              
1 39160U 13021B   26157.84291965  .00000342  00000+0  72510-4 0  9998
2 39160  97.9081 211.6558 0001673  90.2143 269.9252 14.64845055698773
ARIRANG-5 (KOMPSAT-5)   
1 39227U 13042A   26157.85718436  .00002378  00000+0  17396-3 0  9994
2 39227  97.6211 344.7026 0004013 147.9449 212.2022 15.04553039702301
SKYSAT-A                
1 39418U 13066C   26157.60911422  .00003723  00000+0  21393-3 0  9992
2 39418  97.3819 207.3434 0021116 355.5146   4.5893 15.12917882686886
DUBAISAT-2              
1 39419U 13066D   26157.80039111  .00005039  00000+0  31251-3 0  9997
2 39419  97.4563 148.2176 0012943  71.6952 288.5684 15.10101991684827
GPM-CORE                
1 39574U 14009C   26157.78684191  .00008525  00000+0  18195-3 0  9993
2 39574  64.9731 342.9733 0012059 269.5257  90.4502 15.45424322696209
SENTINEL-1A             
1 39634U 14016A   26157.87607285  .00000070  00000+0  24451-4 0  9997
2 39634  98.1780 165.5595 0001436  80.8553 279.2809 14.59199465648513
KAZEOSAT 1              
1 39731U 14024A   26157.82214074  .00000168  00000+0  64036-4 0  9990
2 39731  98.3203 230.5268 0001504  75.2761 284.8596 14.42075882637069
ALOS-2                  
1 39766U 14029A   26157.85897001  .00001650  00000+0  22778-3 0  9996
2 39766  97.9213 255.1707 0001687  89.4077 270.7328 14.79468156650054
KAZEOSAT 2              
1 40010U 14033A   26157.85651183  .00001281  00000+0  15427-3 0  9997
2 40010  97.5412 358.0140 0008863   4.5805 355.5490 14.85460503647423
