OBJECT_NAME,OBJECT_ID,EPOCH,MEAN_MOTION,ECCENTRICITY,INCLINATION,RA_OF_ASC_NODE,ARG_OF_PERICENTER,MEAN_ANOMALY,EPHEMERIS_TYPE,CLASSIFICATION_TYPE,NORAD_CAT_ID,ELEMENT_SET_NO,REV_AT_EPOCH,BSTAR,MEAN_MOTION_DOT,MEAN_MOTION_DDOT
OCEANSAT-2,2009-051A,2026-06-06T20:01:07.152384,13.99663517,.0014583,98.2323,145.7184,267.8097,92.1400,0,U,35931,999,87788,.12313E-3,.142E-5,0
WORLDVIEW-2 (WV-2),2009-055A,2026-06-06T19:05:28.233888,14.37896376,.0003209,98.4737,231.3881,246.4825,113.6025,0,U,35946,999,87415,.56829E-4,.128E-5,0
SMOS,2009-059A,2026-06-06T11:41:32.734752,14.39766844,.00013403,98.4426,344.9790,91.3547,268.7794,0,U,36036,999,87191,.99006893E-4,.267E-5,0
YAOGAN-7,2009-069A,2026-06-06T14:17:16.757376,14.77999271,.0025983,98.0084,43.5272,74.3293,286.0781,0,U,36110,999,88806,.86021E-4,.571E-5,0
TANDEM-X,2010-030A,2026-06-06T10:55:28.703712,15.19152152,.0001794,97.4458,165.3146,98.1824,261.9614,0,U,36605,999,88501,.44865E-4,.875E-5,0
CARTOSAT-2B,2010-035A,2026-06-06T20:25:10.295040,14.78649575,.001035,97.9953,208.4660,219.3939,140.6520,0,U,36795,999,85832,.14921E-3,.1041E-4,0
YAOGAN-10,2010-038A,2026-06-06T20:29:26.052864,14.85318431,.00017,97.8979,181.3407,88.1708,35.6180,0,U,36834,999,85567,.2562E-3,.2148E-4,0
COSMO-SKYMED 4,2010-060A,2026-06-06T20:16:11.697312,14.82159918,.000142,97.8887,341.5941,82.4721,277.6653,0,U,37216,999,84303,.18899E-4,.98E-6,0
RESOURCESAT-2,2011-015A,2026-06-06T19:30:55.320192,14.21604259,.0010147,98.7645,225.3262,289.0159,70.9918,0,U,37387,999,78470,.59406E-4,.86E-6,0
HAIYANG-2A,2011-043A,2026-06-06T20:20:04.724160,13.74549566,.000624,99.3395,160.7510,112.0987,248.0825,0,U,37781,999,74523,-.49753E-4,-.91E-6,0
RASAT,2011-044D,2026-06-06T20:01:42.748320,14.68155938,.0019432,98.0570,249.3892,222.9338,284.9910,0,U,37791,999,79166,.63528E-4,.317E-5,0
SRMSAT,2011-058D,2026-06-06T06:31:30.735264,14.11573396,.00119474,19.9704,125.5359,84.3565,18.6414,0,U,37841,999,75627,.65061068E-4,.385E-5,0
PLEIADES 1A,2011-076F,2026-06-06T20:23:30.069312,14.58564343,.000149,98.1973,233.0907,97.8401,38.2720,0,U,38012,999,77048,.68706E-4,.274E-5,0
ZIYUAN 1-02C (ZY 1-02C),2011-079A,2026-06-06T20:42:20.156256,14.38206586,.0006192,98.4068,225.3867,350.8008,144.0666,0,U,38038,999,75772,.16834E-3,.468E-5,0
ARIRANG-3 (KOMPSAT-3),2012-025B,2026-06-06T20:04:35.295168,14.62197227,.0006204,98.1172,115.4755,136.1013,224.0683,0,U,38338,999,74983,.10896E-3,.502E-5,0
EXACTVIEW-1 (ADS-1B),2012-039C,2026-06-06T13:37:55.911936,14.24981483,.0010585,98.9765,274.7191,196.7561,163.3269,0,U,38709,999,72119,.79436E-4,.139E-5,0
SPOT 6,2012-047A,2026-06-06T20:08:11.225184,14.58556756,.0001451,98.2117,225.2688,94.0993,266.0373,0,U,38755,999,73154,.7356E-4,.296E-5,0
PLEIADES 1B,2012-068A,2026-06-06T20:35:23.997696,14.58554262,.0001579,98.1943,233.0517,94.9019,265.2361,0,U,39019,999,71934,.83531E-4,.343E-5,0
GOKTURK 2,2012-073A,2026-06-06T20:11:01.951584,14.75532086,.0001944,97.6823,355.7907,62.5404,297.6003,0,U,39030,999,72298,.74712E-4,.462E-5,0
LANDSAT 8,2013-008A,2026-06-06T19:01:46.617888,14.57111790,.000146,98.2302,228.0512,96.4355,263.7009,0,U,39084,999,69638,.8482E-4,.337E-5,0
SARAL,2013-009A,2026-06-06T20:17:41.911872,14.32853400,.0001295,98.5558,344.5441,356.8722,3.2453,0,U,39086,999,69412,.47644E-4,.86E-6,0
GAOFEN-1,2013-018A,2026-06-06T19:55:23.327904,14.76524852,.0015956,97.9091,230.1081,303.0238,56.9438,0,U,39150,999,70671,.242E-4,.118E-5,0
VNREDSAT 1,2013-021B,2026-06-06T20:13:48.257760,14.64845055,.0001673,97.9081,211.6558,90.2143,269.9252,0,U,39160,999,69877,.7251E-4,.342E-5,0
ARIRANG-5 (KOMPSAT-5),2013-042A,2026-06-06T20:34:20.728704,15.04553039,.0004013,97.6211,344.7026,147.9449,212.2022,0,U,39227,999,70230,.17396E-3,.2378E-4,0
SKYSAT-A,2013-066C,2026-06-06T14:37:07.468608,15.12917882,.0021116,97.3819,207.3434,355.5146,4.5893,0,U,39418,999,68688,.21393E-3,.3723E-4,0
DUBAISAT-2,2013-066D,2026-06-06T19:12:33.791904,15.10101991,.0012943,97.4563,148.2176,71.6952,288.5684,0,U,39419,999,68482,.31251E-3,.5039E-4,0
GPM-CORE,2014-009C,2026-06-06T18:53:03.141024,15.45424322,.0012059,64.9731,342.9733,269.5257,90.4502,0,U,39574,999,69620,.18195E-3,.8525E-4,0
SENTINEL-1A,2014-016A,2026-06-06T21:01:32.694240,14.59199465,.0001436,98.1780,165.5595,80.8553,279.2809,0,U,39634,999,64851,.24451E-4,.7E-6,0
KAZEOSAT 1,2014-024A,2026-06-06T19:43:52.959936,14.42075882,.0001504,98.3203,230.5268,75.2761,284.8596,0,U,39731,999,63706,.64036E-4,.168E-5,0
ALOS-2,2014-029A,2026-06-06T20:36:55.008864,14.79468156,.0001687,97.9213,255.1707,89.4077,270.7328,0,U,39766,999,65005,.22778E-3,.165E-4,0
KAZEOSAT 2,2014-033A,2026-06-06T20:33:22.622112,14.85460503,.0008863,97.5412,358.0140,4.5805,355.5490,0,U,40010,999,64742,.15427E-3,.1281E-4,0
